NORAD_CAT_ID,OBJECT_NAME,OBJECT_TYPE,EPOCH,MEAN_MOTION,ECCENTRICITY,INCLINATION,RA_OF_ASC_NODE,ARG_OF_PERICENTER,MEAN_ANOMALY,BSTAR,MEAN_MOTION_DOT,MEAN_MOTION_DDOT,TLE_LINE0,TLE_LINE1,TLE_LINE2,SEMIMAJOR_AXIS,PERIOD,APOGEE,PERIGEE,DECAYED
53422.0,STARLINK-4546,PAYLOAD,2022-11-03 16:02:48,15.08839562,0.000188,53.2212,199.9752,49.473,310.6426,5.303600000000001e-05,5.56e-06,0.0,0 STARLINK-4546,1 53422U 22097AL  22307.66861385  .00000556  00000-0  53036-4 0  9990,2 53422  53.2212 199.9752 0001880  49.4730 310.6426 15.08839562 13686,6917.882,95.438,541.047,538.446,0.0
53422.0,STARLINK-4546,PAYLOAD,2022-11-04 01:35:07,15.08837092,0.0002115,53.2218,198.1932,56.1097,304.0096,0.00013627,1.881e-05,0.0,0 STARLINK-4546,1 53422U 22097AL  22308.06605395  .00001881  00000-0  13627-3 0  9995,2 53422  53.2218 198.1932 0002115  56.1097 304.0096 15.08837092 14223,6917.889,95.438,541.217,538.2909999999998,0.0
53422.0,STARLINK-4546,PAYLOAD,2022-11-04 19:04:22,15.08834777,0.0002172,53.2208,194.923,49.6853,310.4329,8.983899999999999e-05,1.142e-05,0.0,0 STARLINK-4546,1 53422U 22097AL  22308.79470025  .00001142  00000-0  89839-4 0  9994,2 53422  53.2208 194.9230 0002172  49.6853 310.4329 15.08834777 13852,6917.896,95.438,541.264,538.259,0.0
53422.0,STARLINK-4546,PAYLOAD,2022-11-05 09:22:50,15.08837581,0.0001887,53.2206,192.2454,51.14100000000001,308.9751,7.8553e-05,9.62e-06,0.0,0 STARLINK-4546,1 53422U 22097AL  22309.39085968  .00000962  00000-0  78553-4 0  9999,2 53422  53.2206 192.2454 0001887  51.1410 308.9751 15.08837581 14429,6917.888000000001,95.438,541.058,538.447,0.0
53422.0,STARLINK-4546,PAYLOAD,2022-11-05 18:55:09,15.08840966,0.0001886,53.2207,190.4613,52.2965,307.8198,-2.6716e-05,-7.13e-06,0.0,0 STARLINK-4546,1 53422U 22097AL  22309.78830125 -.00000713  00000-0 -26716-4 0  9995,2 53422  53.2207 190.4613 0001886  52.2965 307.8198 15.08840966 14483,6917.877,95.437,541.047,538.438,0.0
53422.0,STARLINK-4546,PAYLOAD,2022-11-06 01:16:41,15.08838631,0.0002099,53.2207,189.2732,49.6872,310.4303,-2.2714e-05,-6.5e-06,0.0,0 STARLINK-4546,1 53422U 22097AL  22310.05326282 -.00000650  00000-0 -22714-4 0  9995,2 53422  53.2207 189.2732 0002099  49.6872 310.4303 15.08838631 14041,6917.885,95.438,541.202,538.298,0.0
53422.0,STARLINK-4546,PAYLOAD,2022-11-07 02:42:51,15.08843313,0.0002083,53.2203,184.5154,44.4918,315.6241,5.7961e-05,6.34e-06,0.0,0 STARLINK-4546,1 53422U 22097AL  22311.11310049  .00000634  00000-0  57961-4 0  9999,2 53422  53.2203 184.5154 0002083  44.4918 315.6241 15.08843313 14209,6917.87,95.437,541.1759999999998,538.294,0.0
53422.0,STARLINK-4546,PAYLOAD,2022-11-07 18:36:43,15.08835859,0.0002067,53.2205,181.5415,51.8271,308.2907,3.1686e-05,2.16e-06,0.0,0 STARLINK-4546,1 53422U 22097AL  22311.77550657  .00000216  00000-0  31686-4 0  9994,2 53422  53.2205 181.5415 0002067  51.8271 308.2907 15.08835859 14308,6917.893,95.438,541.188,538.328,0.0
53422.0,STARLINK-4546,PAYLOAD,2022-11-08 02:33:38,15.08849319,0.0002351,53.2195,180.0557,49.9819,310.1379,0.00015204,2.133e-05,0.0,0 STARLINK-4546,1 53422U 22097AL  22312.10669515  .00002133  00000-0  15204-3 0  9993,2 53422  53.2195 180.0557 0002351  49.9819 310.1379 15.08849319 14355,6917.852,95.437,541.3430000000002,538.091,0.0
53422.0,STARLINK-4546,PAYLOAD,2022-11-08 08:55:10,15.08850826,0.000232,53.2213,178.8663,45.3877,314.7304,0.00014109,1.959e-05,0.0,0 STARLINK-4546,1 53422U 22097AL  22312.37165123  .00001959  00000-0  14109-3 0  9996,2 53422  53.2213 178.8663 0002320  45.3877 314.7304 15.08850826 14879,6917.847,95.437,541.317,538.107,0.0
53422.0,STARLINK-4546,PAYLOAD,2022-11-09 21:29:03,15.08831869,0.0001934,53.2196,172.0264,50.8394,309.2769,-0.00011344,-2.093e-05,0.0,0 STARLINK-4546,1 53422U 22097AL  22313.89518308 -.00002093  00000-0 -11344-3 0  9991,2 53422  53.2196 172.0264 0001934  50.8394 309.2769 15.08831869 14620,6917.905,95.438,541.1080000000002,538.432,0.0
53422.0,STARLINK-4546,PAYLOAD,2022-11-10 00:39:50,15.08833365,0.0001927,53.2198,171.4316,51.1383,308.978,-0.00010275,-1.923e-05,0.0,0 STARLINK-4546,1 53422U 22097AL  22314.02766204 -.00001923  00000-0 -10275-3 0  9990,2 53422  53.2198 171.4316 0001927  51.1383 308.9780 15.08833365 15125,6917.901,95.438,541.099,538.433,0.0
53422.0,STARLINK-4546,PAYLOAD,2022-11-10 19:44:28,15.08829176,0.0001854,53.2201,167.8635,47.0179,313.0968,-0.0002122,-3.663e-05,0.0,0 STARLINK-4546,1 53422U 22097AL  22314.82255065 -.00003663  00000-0 -21220-3 0  9991,2 53422  53.2201 167.8635 0001854  47.0179 313.0968 15.08829176 15242,6917.913000000001,95.438,541.061,538.496,0.0
53422.0,STARLINK-4546,PAYLOAD,2022-11-11 02:06:00,15.08833331,0.000176,53.2198,166.6743,46.8094,313.3045,-0.00024311,-4.154e-05,0.0,0 STARLINK-4546,1 53422U 22097AL  22315.08751064 -.00004154  00000-0 -24311-3 0  9990,2 53422  53.2198 166.6743 0001760  46.8094 313.3045 15.08833331 14801,6917.901,95.438,540.9830000000002,538.548,0.0
53422.0,STARLINK-4546,PAYLOAD,2022-11-11 06:52:10,15.08819333,0.0001862,53.2199,165.7824,48.5366,311.5786,-1.9618e-05,-6e-06,0.0,0 STARLINK-4546,1 53422U 22097AL  22315.28623416 -.00000600  00000-0 -19618-4 0  9998,2 53422  53.2199 165.7824 0001862  48.5366 311.5786 15.08819333 15311,6917.944,95.439,541.097,538.52,0.0
53422.0,STARLINK-4546,PAYLOAD,2022-11-11 19:35:15,15.08819997,0.0001911,53.2199,163.4037,45.1318,314.983,6.424600000000001e-05,7.34e-06,0.0,0 STARLINK-4546,1 53422U 22097AL  22315.81615672  .00000734  00000-0  64246-4 0  9995,2 53422  53.2199 163.4037 0001911  45.1318 314.9830 15.08819997 15398,6917.941999999999,95.439,541.129,538.485,0.0
53422.0,STARLINK-4546,PAYLOAD,2022-11-12 06:42:57,15.0882751,0.0001943,53.22,161.3223,45.9507,314.1645,0.00010876,1.443e-05,0.0,0 STARLINK-4546,1 53422U 22097AL  22316.27983606  .00001443  00000-0  10876-3 0  9998,2 53422  53.2200 161.3223 0001943  45.9507 314.1645 15.08827510 14988,6917.919,95.438,541.128,538.439,0.0
53422.0,STARLINK-4546,PAYLOAD,2022-11-12 21:01:26,15.088318,0.0001901,53.22,158.6463,46.2441,313.8708,0.00018388,2.639e-05,0.0,0 STARLINK-4546,1 53422U 22097AL  22316.87599538  .00002639  00000-0  18388-3 0  9995,2 53422  53.2200 158.6463 0001901  46.2441 313.8708 15.08831800 15555,6917.905,95.438,541.086,538.455,0.0
53422.0,STARLINK-4546,PAYLOAD,2022-11-13 01:47:35,15.0883508,0.0001919,53.2199,157.7542,46.3495,313.7656,0.00020567,2.986e-05,0.0,0 STARLINK-4546,1 53422U 22097AL  22317.07471432  .00002986  00000-0  20567-3 0  9997,2 53422  53.2199 157.7542 0001919  46.3495 313.7656 15.08835080 15105,6917.895,95.438,541.0880000000002,538.433,0.0
53422.0,STARLINK-4546,PAYLOAD,2022-11-13 06:33:44,15.088385,0.0001925,53.22,156.8621,46.8115,313.3038,0.00020541,2.982e-05,0.0,0 STARLINK-4546,1 53422U 22097AL  22317.27343335  .00002982  00000-0  20541-3 0  9997,2 53422  53.2200 156.8621 0001925  46.8115 313.3038 15.08838500 15613,6917.885,95.438,541.082,538.418,0.0
53422.0,STARLINK-4546,PAYLOAD,2022-11-13 19:16:50,15.08835753,0.0001882,53.2201,154.4833,47.027,313.088,6.137699999999999e-05,6.89e-06,0.0,0 STARLINK-4546,1 53422U 22097AL  22317.80336116  .00000689  00000-0  61377-4 0  9990,2 53422  53.2201 154.4833 0001882  47.0270 313.0880 15.08835753 15215,6917.893,95.438,541.06,538.456,0.0
53422.0,STARLINK-4546,PAYLOAD,2022-11-14 06:24:32,15.08838049,0.0001909,53.2202,152.40200000000004,47.1664,312.9489,6.3156e-05,7.17e-06,0.0,0 STARLINK-4546,1 53422U 22097AL  22318.26704072  .00000717  00000-0  63156-4 0  9990,2 53422  53.2202 152.4020 0001909  47.1664 312.9489 15.08838049 15764,6917.886,95.438,541.072,538.431,0.0
53422.0,STARLINK-4546,PAYLOAD,2022-11-14 19:07:37,15.0884353,0.0001928,53.2201,150.0232,47.6518,312.4637,6.461100000000001e-05,7.400000000000001e-06,0.0,0 STARLINK-4546,1 53422U 22097AL  22318.79695660  .00000740  00000-0  64611-4 0  9993,2 53422  53.2201 150.0232 0001928  47.6518 312.4637 15.08843530 15846,6917.87,95.437,541.068,538.401,0.0
53422.0,STARLINK-4546,PAYLOAD,2022-11-14 20:43:00,15.08846357,0.000193,53.2201,149.7258,47.4553,312.6601,2.7949e-05,1.57e-06,0.0,0 STARLINK-4546,1 53422U 22097AL  22318.86319539  .00000157  00000-0  27949-4 0  9994,2 53422  53.2201 149.7258 0001930  47.4553 312.6601 15.08846357 15370,6917.861,95.437,541.061,538.391,0.0
53422.0,STARLINK-4546,PAYLOAD,2022-11-15 12:36:50,15.08849724,0.0001962,53.2201,146.7522,47.8779,312.2379,3.5449e-05,2.76e-06,0.0,0 STARLINK-4546,1 53422U 22097AL  22319.52558999  .00000276  00000-0  35449-4 0  9999,2 53422  53.2201 146.7522 0001962  47.8779 312.2379 15.08849724 15953,6917.851,95.437,541.073,538.3580000000002,0.0
53422.0,STARLINK-4546,PAYLOAD,2022-11-15 18:58:23,15.08847771,0.0001982,53.22,145.5632,47.9635,312.1526,0.00013969,1.936e-05,0.0,0 STARLINK-4546,1 53422U 22097AL  22319.79054737  .00001936  00000-0  13969-3 0  9995,2 53422  53.2200 145.5632 0001982  47.9635 312.1526 15.08847771 15992,6917.857,95.437,541.0930000000002,538.351,0.0
53422.0,STARLINK-4546,PAYLOAD,2022-11-15 22:09:09,15.08848054,0.0001993,53.22,144.9685,48.2198,311.8964,0.0001368,1.89e-05,0.0,0 STARLINK-4546,1 53422U 22097AL  22319.92302639  .00001890  00000-0  13680-3 0  9996,2 53422  53.2200 144.9685 0001993  48.2198 311.8964 15.08848054 15530,6917.856,95.437,541.099,538.342,0.0
53422.0,STARLINK-4546,PAYLOAD,2022-11-16 12:27:38,15.08839602,0.0002059,53.2196,142.2923,49.3617,310.7554,2.8911e-05,1.72e-06,0.0,0 STARLINK-4546,1 53422U 22097AL  22320.51919381  .00000172  00000-0  28911-4 0  9997,2 53422  53.2196 142.2923 0002059  49.3617 310.7554 15.08839602 15624,6917.882,95.438,541.1709999999998,538.322,0.0
53422.0,STARLINK-4546,PAYLOAD,2022-11-16 18:49:10,15.08839936,0.0002067,53.2199,141.1031,49.1451,310.972,-5.4181e-06,-3.74e-06,0.0,0 STARLINK-4546,1 53422U 22097AL  22320.78415409 -.00000374  00000-0 -54181-5 0  9993,2 53422  53.2199 141.1031 0002067  49.1451 310.9720 15.08839936 16143,6917.880999999999,95.438,541.1759999999998,538.316,0.0
